start=new Date('2022-04-30T00:00:00.000Z').valueOf();
sats=[{"OBJECT_NAME":"STARLINK-1785","LAUNCH_DATE":"2020-11-25","MEAN_ELEMENT_THEORY":"SGP4","CLASSIFICATION_TYPE":"U","SEMIMAJOR_AXIS":"6925.366","GP_ID":"202309383","ARG_OF_PERICENTER":"60.4366","PERIAPSIS":"546.211","REV_AT_EPOCH":"7923","TIME_SYSTEM":"UTC","EPHEMERIS_TYPE":"0","MEAN_ANOMALY":"299.6769","ELEMENT_SET_NO":"999","OBJECT_TYPE":"PAYLOAD","RA_OF_ASC_NODE":"156.7791","DECAY_DATE":null,"NORAD_CAT_ID":"47124","INCLINATION":"53.0530","MEAN_MOTION":"15.06394217","TLE_LINE1":"1 47124U 20088C   22119.59631822 -.00001653  00000-0 -92142-4 0  9996","MEAN_MOTION_DOT":"-0.00001653","CENTER_NAME":"EARTH","RCS_SIZE":"LARGE","APOAPSIS":"548.251","ECCENTRICITY":"0.00014730","REF_FRAME":"TEME","EPOCH":"2022-04-29T14:18:41.894208","BSTAR":"-0.00009214200000","OBJECT_ID":"2020-088C","COUNTRY_CODE":"US","PERIOD":"95.593","TLE_LINE2":"2 47124  53.0530 156.7791 0001473  60.4366 299.6769 15.06394217 79239","SITE":"AFETR","MEAN_MOTION_DDOT":"0.0000000000000","FILE":"3421985"},{"RA_OF_ASC_NODE":"151.8858","OBJECT_TYPE":"PAYLOAD","REV_AT_EPOCH":"7930","EPHEMERIS_TYPE":"0","TIME_SYSTEM":"UTC","MEAN_ANOMALY":"309.9867","ELEMENT_SET_NO":"999","GP_ID":"202310134","SEMIMAJOR_AXIS":"6925.363","ARG_OF_PERICENTER":"50.1301","PERIAPSIS":"545.814","MEAN_ELEMENT_THEORY":"SGP4","LAUNCH_DATE":"2020-11-25","OBJECT_NAME":"STARLINK-1812","CLASSIFICATION_TYPE":"U","SITE":"AFETR","TLE_LINE2":"2 47126  53.0534 151.8858 0002042  50.1301 309.9867 15.06395188 79303","PERIOD":"95.592","MEAN_MOTION_DDOT":"0.0000000000000","FILE":"3421985","REF_FRAME":"TEME","ECCENTRICITY":"0.00020420","EPOCH":"2022-04-29T13:40:55.432128","BSTAR":"0.00016171000000","COUNTRY_CODE":"US","OBJECT_ID":"2020-088E","MEAN_MOTION_DOT":"0.00002127","TLE_LINE1":"1 47126U 20088E   22119.57008602  .00002127  00000-0  16171-3 0  9992","RCS_SIZE":"LARGE","CENTER_NAME":"EARTH","APOAPSIS":"548.642","NORAD_CAT_ID":"47126","DECAY_DATE":null,"INCLINATION":"53.0534","MEAN_MOTION":"15.06395188"},{"INCLINATION":"53.0522","MEAN_MOTION":"15.06393679","DECAY_DATE":null,"NORAD_CAT_ID":"47128","CENTER_NAME":"EARTH","RCS_SIZE":"LARGE","APOAPSIS":"548.503","TLE_LINE1":"1 47128U 20088G   22119.72673581 -.00000653  00000-0 -24913-4 0  9993","MEAN_MOTION_DOT":"-0.00000653","OBJECT_ID":"2020-088G","COUNTRY_CODE":"US","ECCENTRICITY":"0.00018340","REF_FRAME":"TEME","EPOCH":"2022-04-29T17:26:29.973984","BSTAR":"-0.00002491300000","FILE":"3421985","PERIOD":"95.593","TLE_LINE2":"2 47128  53.0522 131.1905 0001834  51.4170 308.6983 15.06393679 79603","SITE":"AFETR","MEAN_MOTION_DDOT":"0.0000000000000","OBJECT_NAME":"STARLINK-1837","LAUNCH_DATE":"2020-11-25","MEAN_ELEMENT_THEORY":"SGP4","CLASSIFICATION_TYPE":"U","ARG_OF_PERICENTER":"51.4170","PERIAPSIS":"545.963","SEMIMAJOR_AXIS":"6925.368","GP_ID":"202310878","MEAN_ANOMALY":"308.6983","ELEMENT_SET_NO":"999","REV_AT_EPOCH":"7960","EPHEMERIS_TYPE":"0","TIME_SYSTEM":"UTC","OBJECT_TYPE":"PAYLOAD","RA_OF_ASC_NODE":"131.1905"},{"REV_AT_EPOCH":"7947","EPHEMERIS_TYPE":"0","TIME_SYSTEM":"UTC","MEAN_ANOMALY":"316.6572","ELEMENT_SET_NO":"999","RA_OF_ASC_NODE":"141.0584","OBJECT_TYPE":"PAYLOAD","LAUNCH_DATE":"2020-11-25","OBJECT_NAME":"STARLINK-1838","MEAN_ELEMENT_THEORY":"SGP4","CLASSIFICATION_TYPE":"U","SEMIMAJOR_AXIS":"6925.353","GP_ID":"202309627","ARG_OF_PERICENTER":"43.4585","PERIAPSIS":"545.740","ECCENTRICITY":"0.00021340","REF_FRAME":"TEME","BSTAR":"0.00004115800000","EPOCH":"2022-04-29T18:07:37.939008","OBJECT_ID":"2020-088H","COUNTRY_CODE":"US","PERIOD":"95.592","SITE":"AFETR","TLE_LINE2":"2 47129  53.0534 141.0584 0002134  43.4585 316.6572 15.06398568 79475","MEAN_MOTION_DDOT":"0.0000000000000","FILE":"3421985","NORAD_CAT_ID":"47129","DECAY_DATE":null,"INCLINATION":"53.0534","MEAN_MOTION":"15.06398568","TLE_LINE1":"1 47129U 20088H   22119.75530022  .00000331  00000-0  41158-4 0  9990","MEAN_MOTION_DOT":"0.00000331","RCS_SIZE":"LARGE","CENTER_NAME":"EARTH","APOAPSIS":"548.696"},{"MEAN_MOTION_DDOT":"0.0000000000000","PERIOD":"95.592","SITE":"AFETR","TLE_LINE2":"2 47130  53.0529 160.8256 0002754  28.2710 331.8428 15.06394566 79197","FILE":"3421985","EPOCH":"2022-04-29T19:19:17.476896","BSTAR":"0.00001440900000","ECCENTRICITY":"0.00027540","REF_FRAME":"TEME","OBJECT_ID":"2020-088J","COUNTRY_CODE":"US","TLE_LINE1":"1 47130U 20088J   22119.80506339 -.00000067  00000-0  14409-4 0  9998","MEAN_MOTION_DOT":"-0.00000067","APOAPSIS":"549.137","RCS_SIZE":"LARGE","CENTER_NAME":"EARTH","DECAY_DATE":null,"NORAD_CAT_ID":"47130","MEAN_MOTION":"15.06394566","INCLINATION":"53.0529","RA_OF_ASC_NODE":"160.8256","OBJECT_TYPE":"PAYLOAD","EPHEMERIS_TYPE":"0","TIME_SYSTEM":"UTC","REV_AT_EPOCH":"7919","ELEMENT_SET_NO":"999","MEAN_ANOMALY":"331.8428","GP_ID":"202309877","SEMIMAJOR_AXIS":"6925.365","PERIAPSIS":"545.323","ARG_OF_PERICENTER":"28.2710","CLASSIFICATION_TYPE":"U","OBJECT_NAME":"STARLINK-1839","LAUNCH_DATE":"2020-11-25","MEAN_ELEMENT_THEORY":"SGP4"},{"OBJECT_TYPE":"PAYLOAD","RA_OF_ASC_NODE":"140.4874","TIME_SYSTEM":"UTC","EPHEMERIS_TYPE":"0","REV_AT_EPOCH":"7948","ELEMENT_SET_NO":"999","MEAN_ANOMALY":"308.6887","GP_ID":"202310628","SEMIMAJOR_AXIS":"6925.343","PERIAPSIS":"546.059","ARG_OF_PERICENTER":"51.4251","CLASSIFICATION_TYPE":"U","LAUNCH_DATE":"2020-11-25","OBJECT_NAME":"STARLINK-1843","MEAN_ELEMENT_THEORY":"SGP4","MEAN_MOTION_DDOT":"0.0000000000000","PERIOD":"95.592","TLE_LINE2":"2 47133  53.0517 140.4874 0001659  51.4251 308.6887 15.06401845 79480","SITE":"AFETR","FILE":"3421985","EPOCH":"2022-04-29T21:08:05.504064","BSTAR":"0.00004616500000","ECCENTRICITY":"0.00016590","REF_FRAME":"TEME","OBJECT_ID":"2020-088M","COUNTRY_CODE":"US","TLE_LINE1":"1 47133U 20088M   22119.88061926  .00000406  00000-0  46165-4 0  9997","MEAN_MOTION_DOT":"0.00000406","APOAPSIS":"548.357","RCS_SIZE":"LARGE","CENTER_NAME":"EARTH","DECAY_DATE":null,"NORAD_CAT_ID":"47133","MEAN_MOTION":"15.06401845","INCLINATION":"53.0517"},{"APOAPSIS":"548.541","RCS_SIZE":"LARGE","CENTER_NAME":"EARTH","MEAN_MOTION_DOT":"-0.00001564","TLE_LINE1":"1 47134U 20088N   22119.78755577 -.00001564  00000-0 -86100-4 0  9990","MEAN_MOTION":"15.06391024","INCLINATION":"53.0528","DECAY_DATE":null,"NORAD_CAT_ID":"47134","FILE":"3421747","MEAN_MOTION_DDOT":"0.0000000000000","TLE_LINE2":"2 47134  53.0528 150.9156 0001877  49.1911 310.9241 15.06391024 79635","SITE":"AFETR","PERIOD":"95.593","COUNTRY_CODE":"US","OBJECT_ID":"2020-088N","EPOCH":"2022-04-29T18:54:04.818528","BSTAR":"-0.00008610000000","REF_FRAME":"TEME","ECCENTRICITY":"0.00018770","PERIAPSIS":"545.941","ARG_OF_PERICENTER":"49.1911","SEMIMAJOR_AXIS":"6925.376","GP_ID":"202283234","CLASSIFICATION_TYPE":"U","MEAN_ELEMENT_THEORY":"SGP4","OBJECT_NAME":"STARLINK-1844","LAUNCH_DATE":"2020-11-25","RA_OF_ASC_NODE":"150.9156","OBJECT_TYPE":"PAYLOAD","ELEMENT_SET_NO":"999","MEAN_ANOMALY":"310.9241","TIME_SYSTEM":"UTC","EPHEMERIS_TYPE":"0","REV_AT_EPOCH":"7963"},{"DECAY_DATE":null,"NORAD_CAT_ID":"47135","INCLINATION":"53.0525","MEAN_MOTION":"15.06408449","MEAN_MOTION_DOT":"0.00002119","TLE_LINE1":"1 47135U 20088P   22119.34247091  .00002119  00000-0  16109-3 0  9996","CENTER_NAME":"EARTH","RCS_SIZE":"LARGE","APOAPSIS":"548.517","REF_FRAME":"TEME","ECCENTRICITY":"0.00019190","BSTAR":"0.00016109000000","EPOCH":"2022-04-29T08:13:09.486624","COUNTRY_CODE":"US","OBJECT_ID":"2020-088P","TLE_LINE2":"2 47135  53.0525 142.9243 0001919  44.0954 316.0187 15.06408449 79714","SITE":"AFETR","PERIOD":"95.592","MEAN_MOTION_DDOT":"0.0000000000000","FILE":"3421691","MEAN_ELEMENT_THEORY":"SGP4","OBJECT_NAME":"STARLINK-1845","LAUNCH_DATE":"2020-11-25","CLASSIFICATION_TYPE":"U","GP_ID":"202281761","SEMIMAJOR_AXIS":"6925.323","ARG_OF_PERICENTER":"44.0954","PERIAPSIS":"545.859","REV_AT_EPOCH":"7971","EPHEMERIS_TYPE":"0","TIME_SYSTEM":"UTC","MEAN_ANOMALY":"316.0187","ELEMENT_SET_NO":"999","OBJECT_TYPE":"PAYLOAD","RA_OF_ASC_NODE":"142.9243"},{"INCLINATION":"53.0540","MEAN_MOTION":"15.06389166","NORAD_CAT_ID":"47136","DECAY_DATE":null,"RCS_SIZE":"LARGE","CENTER_NAME":"EARTH","APOAPSIS":"548.295","MEAN_MOTION_DOT":"-0.00003710","TLE_LINE1":"1 47136U 20088Q   22119.80598240 -.00003710  00000-0 -23035-3 0  9999","COUNTRY_CODE":"US","OBJECT_ID":"2020-088Q","REF_FRAME":"TEME","ECCENTRICITY":"0.00015130","BSTAR":"-0.00023035000000","EPOCH":"2022-04-29T19:20:36.879360","FILE":"3421985","TLE_LINE2":"2 47136  53.0540 150.8450 0001513  58.0762 302.0374 15.06389166 79337","SITE":"AFETR","PERIOD":"95.593","MEAN_MOTION_DDOT":"0.0000000000000","MEAN_ELEMENT_THEORY":"SGP4","LAUNCH_DATE":"2020-11-25","OBJECT_NAME":"STARLINK-1846","CLASSIFICATION_TYPE":"U","ARG_OF_PERICENTER":"58.0762","PERIAPSIS":"546.199","SEMIMAJOR_AXIS":"6925.382","GP_ID":"202309384","MEAN_ANOMALY":"302.0374","ELEMENT_SET_NO":"999","REV_AT_EPOCH":"7933","TIME_SYSTEM":"UTC","EPHEMERIS_TYPE":"0","OBJECT_TYPE":"PAYLOAD","RA_OF_ASC_NODE":"150.8450"},{"APOAPSIS":"548.601","RCS_SIZE":"LARGE","CENTER_NAME":"EARTH","TLE_LINE1":"1 47137U 20088R   22119.78847255  .00000848  00000-0  75848-4 0  9997","MEAN_MOTION_DOT":"0.00000848","MEAN_MOTION":"15.06397435","INCLINATION":"53.0551","DECAY_DATE":null,"NORAD_CAT_ID":"47137","FILE":"3421985","MEAN_MOTION_DDOT":"0.0000000000000","PERIOD":"95.592","TLE_LINE2":"2 47137  53.0551 140.9117 0001992  46.5928 313.5226 15.06397435 79473","SITE":"AFETR","OBJECT_ID":"2020-088R","COUNTRY_CODE":"US","BSTAR":"0.00007584800000","EPOCH":"2022-04-29T18:55:24.028320","ECCENTRICITY":"0.00019920","REF_FRAME":"TEME","PERIAPSIS":"545.842","ARG_OF_PERICENTER":"46.5928","SEMIMAJOR_AXIS":"6925.356","GP_ID":"202310135","CLASSIFICATION_TYPE":"U","OBJECT_NAME":"STARLINK-1849","LAUNCH_DATE":"2020-11-25","MEAN_ELEMENT_THEORY":"SGP4","RA_OF_ASC_NODE":"140.9117","OBJECT_TYPE":"PAYLOAD","ELEMENT_SET_NO":"999","MEAN_ANOMALY":"313.5226","TIME_SYSTEM":"UTC","EPHEMERIS_TYPE":"0","REV_AT_EPOCH":"7947"}];
